0 COSMOS 1375 DEB
1 16206U 82055H   19290.89192890 -.00000058 +00000-0 +24382-4 0  9999
2 16206 065.8340 081.3342 0018036 185.1035 338.2768 13.73275627872068
0 COSMOS 1375 DEB
1 16207U 82055J   19290.92870039 -.00000077 +00000-0 +58746-6 0  9996
2 16207 065.8333 112.2142 0090639 274.8134 237.5007 13.57571283684548
0 COSMOS 1375 DEB
1 16208U 82055K   19290.84316719 -.00000070 +00000-0 +11351-4 0  9990
2 16208 065.8336 250.5537 0045330 342.1051 032.7188 13.75979134707235
0 COSMOS 1375 DEB
1 16208U 82055K   19291.80074149 -.00000063  00000-0  18617-4 0  9999
2 16208  65.8338 248.1841 0045413 341.6654  96.0533 13.75979163707580
0 COSMOS 1375 DEB
1 16209U 82055L   19290.81063541 -.00000074 +00000-0 +61157-5 0  9994
2 16209 065.8335 128.6910 0011629 153.6507 336.9683 13.71289878706615
0 COSMOS 1375 DEB
1 16210U 82055M   19290.55818258 -.00000051 +00000-0 +30780-4 0  9992
2 16210 065.8346 329.1862 0032123 216.9297 294.7724 13.74411578705303
0 COSMOS 1375 DEB
1 16211U 82055N   19290.87451586 -.00000034 +00000-0 +51450-4 0  9993
2 16211 065.8350 228.0237 0034114 202.7382 261.1052 13.69993518699163
0 SL-12 R/B(2)
1 16214U 85102D   19290.57947007 -.00000352 +00000-0 +00000-0 0  9991
2 16214 013.3527 338.0013 0019455 087.9616 269.8850 01.00632315100343
0 SL-12 R/B(2)
1 16214U 85102D   19290.93679052 -.00000353  00000-0  00000+0 0  9993
2 16214  13.3522 337.9978 0019453  87.9882  39.3118  1.00632151100434
0 LEASAT 3 PKM
1 16229U 85028E   19291.65384423  .00001553  00000-0  27616-3 0  9999
2 16229  26.9431 101.3160 4829761  81.2569 328.6530  5.89680722564950
0 LEASAT 3 PKM
1 16229U 85028E   19290.80641360 +.00001606 +00000-0 +28220-3 0  9992
2 16229 026.9430 102.3950 4829789 079.4584 329.6897 05.89677786564877
0 RADUGA 17
1 16250U 85107A   19290.32659876 -.00000088 +00000-0 +00000-0 0  9999
2 16250 013.5080 338.2040 0009083 165.8052 352.2251 01.00182805127285
0 COSMOS 1703
1 16262U 85108A   19290.69874449 +.00000628 +00000-0 +35651-4 0  9991
2 16262 082.4783 132.1222 0010802 218.5734 141.4725 15.11125393847357
0 COSMOS 1703
1 16262U 85108A   19291.69201014  .00000534  00000-0  30053-4 0  9991
2 16262  82.4782 131.1454 0010898 215.1641 144.8871 15.11126457847763
0 SL-14 R/B
1 16263U 85108B   19291.82567662  .00000069  00000-0  55066-5 0  9996
2 16263  82.5070  33.4510 0021388  59.0815  69.3185 14.83078115830908
0 SL-14 R/B
1 16263U 85108B   19290.80930757 +.00000074 +00000-0 +61510-5 0  9999
2 16263 082.5069 034.4042 0021430 062.1930 043.0781 14.83078007809679
0 COSMOS 1691 DEB
1 16266U 85094K   19290.67087309 +.00000024 +00000-0 +71516-4 0  9998
2 16266 082.6067 005.7434 0009539 154.1240 359.1744 12.65790754569399
0 COSMOS 1691 DEB
1 16268U 85094M   19290.92182594 +.00000155 +00000-0 +87244-3 0  9999
2 16268 082.7092 268.2214 0076135 201.4770 186.5265 12.55651442551224
0 COSMOS 1691 DEB
1 16270U 85094P   19290.90648985 +.00000073 +00000-0 +28718-3 0  9991
2 16270 082.7281 086.8659 0260947 251.9581 266.6893 12.68401102573108
0 COSMOS 1691 DEB
1 16270U 85094P   19290.90648985  .00000073  00000-0  28718-3 0  9991
2 16270  82.7281  86.8659 0260947 251.9581 266.6893 12.68401102573355
0 COSMOS 1691 DEB
1 16271U 85094Q   19291.21661948  .00000029  00000-0  99320-4 0  9990
2 16271  82.6127  23.3158 0004889 255.8716 131.2290 12.62975519568509
0 COSMOS 1691 DEB
1 16272U 85094R   19291.70801021  .00000118  00000-0  50730-3 0  9993
2 16272  82.6148 276.0972 0040197 186.5058 295.9810 12.73973764578650
0 SATCOM K2
1 16276U 85109D   19290.22514980 -.00000271 +00000-0 +00000-0 0  9998
2 16276 014.9941 012.0707 0010899 226.7210 197.9077 00.99612199101341
0 COSMOS 1704
1 16291U 85110A   19290.76556383 +.00000015 +00000-0 -15750-6 0  9999
2 16291 082.9323 129.1000 0031595 007.0638 068.1509 13.74615151699465
0 COSMOS 1704
1 16291U 85110A   19291.70704774  .00000019  00000-0  40148-5 0  9994
2 16291  82.9322 128.4021 0031530   4.4565  47.1752 13.74615201699865
0 MORELOS 2 R/B(PAM-D)
1 16293U 85109F   19291.64234001 -.00000130  00000-0 -96587-4 0  9991
2 16293  26.1711  26.3818 7173041 297.8766   8.6830  2.34607321223388
0 MORELOS 2 R/B(PAM-D)
1 16293U 85109F   19290.36380025 -.00000106 +00000-0 -47625-4 0  9999
2 16293 026.1706 026.8582 7173071 297.0743 008.8523 02.34607434223369
0 SATCOM K2 R/B(PAM-D2)
1 16295U 85109H   19289.98287948 -.00000056 +00000-0 -38433-4 0  9998
2 16295 026.0409 231.9031 7123097 125.0462 323.2725 02.40194675217129
0 SATCOM K2 R/B(PAM-D2)
1 16295U 85109H   19291.23091926 -.00000081  00000-0 -53560-4 0  9994
2 16295  26.0411 231.4165 7122738 125.8621 322.4481  2.40194646217141
0 COSMOS 1707
1 16326U 85113A   19291.02553282  .00000007  00000-0 -13262-5 0  9992
2 16326  82.5088  89.9654 0009299 229.4027 130.6396 15.14090778846364
0 COSMOS 1707
1 16326U 85113A   19290.89335640 +.00000016 +00000-0 -88050-6 0  9990
2 16326 082.5089 090.0955 0009296 229.9043 130.1374 15.14090804846060
0 SL-14 R/B
1 16327U 85113B   19290.70492137 +.00000076 +00000-0 +62390-5 0  9999
2 16327 082.5379 015.3720 0020343 059.4718 093.2340 14.83446127807117
0 SL-14 R/B
1 16327U 85113B   19291.22159222  .00000073  00000-0  58761-5 0  9996
2 16327  82.5378  14.8892 0020320  57.8862 332.3477 14.83446196828349
0 SL-12 R/B(2)
1 16339U 85107F   19291.65114289 -.00000044  00000-0  00000+0 0  9999
2 16339  14.7170 341.8046 0018866  55.2105 299.9386  0.97494026103648
0 SL-12 R/B(2)
1 16339U 85107F   19289.63834007 -.00000067 +00000-0 +00000-0 0  9997
2 16339 014.7193 341.8237 0018886 055.1081 313.5649 00.97494352103635
0 SL-8 R/B
1 16369U 85116B   19290.90040966 -.00000047 +00000-0 -62290-4 0  9997
2 16369 082.9361 074.0276 0035188 292.8866 223.7468 13.76842363699018
0 SL-8 R/B
1 16369U 85116B   19291.04186288 -.00000048  00000-0 -63491-4 0  9996
2 16369  82.9361  73.9224 0035186 292.4779 204.8913 13.76842340699331
0 COSMOS 1375 DEB
1 16375U 82055P   19291.15265212 -.00000062  00000-0  19011-4 0  9993
2 16375  65.8349  57.1989 0036609 272.2161 142.2284 13.80088694712104
0 COSMOS 1375 DEB
1 16375U 82055P   19290.51393333 -.00000068 +00000-0 +12762-4 0  9990
2 16375 065.8348 058.7905 0036599 272.4463 208.9575 13.80088670712010
0 COSMOS 1375 DEB
1 16376U 82055Q   19291.31976899  .00000149  00000-0  17991-3 0  9991
2 16376  65.8299  36.6718 0028982 224.9632 169.1419 13.92781095721020
0 COSMOS 1375 DEB
1 16377U 82055R   19290.81856472  .00000232  00000-0  21337-3 0  9992
2 16377  65.8253 181.6774 0046973 211.5651 269.1602 14.00182184725941
0 COSMOS 1375 DEB
1 16377U 82055R   19290.81856472 +.00000232 +00000-0 +21337-3 0  9992
2 16377 065.8253 181.6774 0046973 211.5651 269.1602 14.00182184725660
0 COSMOS 1375 DEB
1 16377U 82055R   19291.81895222  .00000229  00000-0  21102-3 0  9995
2 16377  65.8253 179.0983 0046875 211.0634 271.7594 14.00182795726084
0 COSMOS 1375 DEB
1 16379U 82055T   19290.64008618 -.00000051 +00000-0 +30155-4 0  9995
2 16379 065.8357 151.6136 0025562 237.7122 155.2170 13.77940920289652
0 COSMOS 1375 DEB
1 16380U 82055U   19290.75515972 -.00000030 +00000-0 +60465-4 0  9999
2 16380 065.8354 155.4934 0056433 218.5496 268.0721 13.63854466692489
0 COSMOS 1375 DEB
1 16381U 82055V   19290.82488383 -.00000067 +00000-0 +14594-4 0  9995
2 16381 065.8364 172.5868 0071530 251.8216 235.0647 13.63511947692083
0 COSMOS 1375 DEB
1 16382U 82055W   19290.86503569 +.00000614 +00000-0 +30321-3 0  9996
2 16382 065.7456 083.3173 0021126 069.6071 091.3271 14.24554724741958
0 COSMOS 1375 DEB
1 16382U 82055W   19291.83058068  .00000653  00000-0  31971-3 0  9998
2 16382  65.7457  80.7177 0021122  68.8399   3.2938 14.24556084742318
0 COSMOS 1375 DEB
1 16383U 82055X   19290.68954465 +.00000051 +00000-0 +13897-3 0  9996
2 16383 065.8299 173.3921 0038906 119.5615 272.9425 13.74011290700457
0 COSMOS 1375 DEB
1 16384U 82055Y   19290.86068519 -.00000015 +00000-0 +73674-4 0  9994
2 16384 065.8320 296.5500 0039539 176.9589 255.7150 13.69437608697429
0 COSMOS 1375 DEB
1 16384U 82055Y   19291.46098958 -.00000016  00000-0  71974-4 0  9993
2 16384  65.8319 295.0808 0039477 176.6648 335.2017 13.69437648697695
0 COSMOS 1375 DEB
1 16385U 82055Z   19291.04189090  .00000145  00000-0  20527-3 0  9995
2 16385  65.8290 161.5805 0018094  45.5530 104.0059 13.83652933709474
0 COSMOS 1375 DEB
1 16385U 82055Z   19290.81979826 +.00000148 +00000-0 +20797-3 0  9995
2 16385 065.8291 162.1373 0018074 045.6904 077.7026 13.83652859709204
0 COSMOS 1375 DEB
1 16386U 82055AA  19290.84866275 -.00000054 +00000-0 +28439-4 0  9991
2 16386 065.8365 219.1177 0033647 097.9261 005.2974 13.69596929868888
0 COSMOS 1375 DEB
1 16386U 82055AA  19291.30074716 -.00000049  00000-0  34272-4 0  9990
2 16386  65.8366 218.0113 0033635  97.6296  74.3969 13.69596945869126
0 COSMOS 1375 DEB
1 16387U 82055AB  19291.03693875 -.00000039  00000-0  38207-4 0  9995
2 16387  65.8355 156.6154 0056618 209.9693 298.6352 13.84723579718225
0 COSMOS 1375 DEB
1 16387U 82055AB  19290.65258020 -.00000038 +00000-0 +38923-4 0  9995
2 16387 065.8355 157.5806 0056645 210.1456 182.6224 13.84723560717892
0 SL-16 DEB
1 16389U 85097C   19290.86625147 -.00000004 +00000-0 +34595-4 0  9991
2 16389 070.9999 277.7209 0186686 050.7530 310.9972 13.76099195706139
0 SL-16 DEB
1 16390U 85097D   19290.72517539 -.00000049 +00000-0 -44118-5 0  9996
2 16390 070.9740 037.6187 0210121 256.0589 101.7063 13.72068233700833
0 SL-16 DEB
1 16391U 85097E   19290.92032251 -.00000001 +00000-0 +36484-4 0  9995
2 16391 070.9949 254.5633 0188324 072.0148 321.3082 13.76561293706764
0 SL-16 DEB
1 16391U 85097E   19291.38094777 -.00000001  00000-0  37092-4 0  9993
2 16391  70.9950 253.6555 0188322  71.3558  83.9943 13.76561283707097
